IRIDIUM 155             
1 43573U 18061E   23050.48771428  .00000556  00000+0  19147-3 0  9999
2 43573  86.4002 203.8728 0002088  86.1073 274.0362 14.34217187239407
IRIDIUM 154             
1 43574U 18061F   23050.46868530  .00000576  00000+0  19854-3 0  9996
2 43574  86.4005 203.9554 0002169  99.7840 260.3601 14.34217747239441
IRIDIUM 163             
1 43575U 18061G   23050.44963793  .00000749  00000+0  26044-3 0  9993
2 43575  86.4004 203.9154 0001804 101.7844 258.3554 14.34207524239413
IRIDIUM 156             
1 43576U 18061H   23050.14521704  .00000747  00000+0  25968-3 0  9995
2 43576  86.4003 204.0489 0001740  89.5539 270.5856 14.34216106239359
IRIDIUM 164             
1 43577U 18061J   23050.47503298  .00000595  00000+0  20554-3 0  9997
2 43577  86.4003 203.9329 0002029 100.5333 259.6092 14.34216901239452
IRIDIUM 159             
1 43578U 18061K   23050.44330695  .00000513  00000+0  17612-3 0  9995
2 43578  86.4005 203.9087 0002138  98.8491 261.2946 14.34215130239417
IRIDIUM 180             
1 43922U 19002A   23050.65211876  .00000569  00000+0  19626-3 0  9994
2 43922  86.4011 140.8069 0002120 104.4291 255.7140 14.34212869215097
IRIDIUM 176             
1 43923U 19002B   23049.50808095  .00002161  00000+0  33896-3 0  9997
2 43923  86.6144 141.3263 0002009  90.5659 269.5789 14.72234210220531
IRIDIUM 168             
1 43924U 19002C   23049.73878036 -.00002235  00000+0 -80544-3 0  9991
2 43924  86.4014 141.2310 0002311  99.0512 261.0945 14.34211491214905
IRIDIUM 173             
1 43925U 19002D   23049.51678659  .00000530  00000+0  18203-3 0  9994
2 43925  86.4003 141.2607 0002161 101.0246 259.1193 14.34211164214869
IRIDIUM 169             
1 43926U 19002E   23050.36492230  .00000734  00000+0  23354-3 0  9998
2 43926  86.4292 172.4650 0005066  45.4436 314.7175 14.38611490215716
IRIDIUM 172             
1 43927U 19002F   23050.62675333  .00000547  00000+0  18831-3 0  9991
2 43927  86.4006 140.8031 0002184 103.1492 256.9947 14.34215925215021
IRIDIUM 175             
1 43928U 19002G   23050.38549997  .00001816  00000+0  28408-3 0  9992
2 43928  86.6148 140.7979 0002177  92.5213 267.6254 14.72244042220654
IRIDIUM 171             
1 43929U 19002H   23049.97980226  .00000417  00000+0  14188-3 0  9996
2 43929  86.4017 141.2443 0002144 102.7037 257.4398 14.34213686214929
IRIDIUM 170             
1 43930U 19002J   23050.12598360  .00001768  00000+0  27654-3 0  9993
2 43930  86.6139 141.0731 0002167  94.3912 265.7553 14.72243065220635
IRIDIUM 167             
1 43931U 19002K   23050.53161541  .00000540  00000+0  18561-3 0  9990
2 43931  86.4007 140.8545 0002145 102.2112 257.9324 14.34214589215006
